MOZHAYETS 4 (RS-22)     
1 27939U 03042A   25074.90987579  .00003436  00000+0  55602-3 0  9997
2 27939  98.3185 242.3455 0010508 281.7533 208.2935 14.71936959148224
IRS-P6 (RESOURCESAT-1)  
1 28051U 03046A   25074.83940905  .00000628  00000+0  22585-3 0  9995
2 28051  98.2534 127.2556 0063299 276.6132 194.6887 14.35904444114774
SAUDISAT 2              
1 28371U 04025F   25074.87146338  .00001085  00000+0  25576-3 0  9991
2 28371  98.5199  58.9567 0023603 264.5751  95.2754 14.56189782 99076
COSMOS 2407             
1 28380U 04028A   25074.90916157  .00000098  00000+0  83722-4 0  9993
2 28380  82.9587  54.2004 0040680  93.9422 295.2557 13.76277011 37037
COSMOS 2414             
1 28521U 05002A   25074.59475898  .00000129  00000+0  94726-4 0  9991
2 28521  82.9517  30.4796 0039640 195.1327 164.8654 13.87858481 20202
INMARSAT 4-F1           
1 28628U 05009A   25074.43384069  .00000033  00000+0  00000+0 0  9999
2 28628   4.5822  42.0448 0002632 337.0538 128.4613  1.00271999 73073
HAMSAT (VO-52)          
1 28650U 05017B   25074.55966047  .00011246  00000+0  82038-3 0  9991
2 28650  98.0021  74.6495 0022846 141.0109 219.2768 15.03674360 77695
NOAA 18                 
1 28654U 05018A   25074.83463855  .00000452  00000+0  26325-3 0  9990
2 28654  98.8463 155.2671 0014207  17.4033 342.7624 14.13542186 21639
SJ-7                    
1 28737U 05024A   25074.74869169  .00014493  00000+0  82684-3 0  9997
2 28737  97.7643  89.3838 0019532 168.8021 191.3648 15.12706076 78529
CUBESAT XI-V            
1 28895U 05043F   25074.39080675  .00005444  00000+0  90591-3 0  9993
2 28895  98.2344 217.7600 0014444 216.6779 143.3439 14.70413129 34277
CLOUDSAT                
1 29107U 06016A   25074.90510106  .00004358  00000+0  52058-3 0  9994
2 29107  98.4248  81.1557 0005924  27.3830 332.7694 14.84774525  6610
CALIPSO                 
1 29108U 06016B   25074.58262423  .00004011  00000+0  71201-3 0  9992
2 29108  98.4453  70.0140 0001121  82.7978 277.3353 14.67796748  5748
HINODE (SOLAR-B)        
1 29479U 06041A   25074.59138796  .00001896  00000+0  34136-3 0  9991
2 29479  98.0786  92.1952 0016451 304.9261  55.0398 14.67647694987571
METOP-A                 
1 29499U 06044A   25074.55731176  .00005374  00000+0  64207-3 0  9990
2 29499  98.3307 162.9404 0181883  89.3405  35.0619 14.73477636957855
SHIJIAN-6 02B (SJ-6 02B)
1 29506U 06046B   25074.85123330  .00003565  00000+0  29665-3 0  9990
2 29506  97.7155 103.2084 0002336  86.1104 274.0386 14.99317487  2016
DMSP 5D-3 F17 (USA 191) 
1 29522U 06050A   25074.85816396  .00000467  00000+0  26475-3 0  9998
2 29522  98.7428  85.8324 0008898 286.7852  73.2345 14.14778972947601
LAPAN-TUBSAT            
1 29709U 07001A   25074.90456802  .00002119  00000+0  25427-3 0  9992
2 29709  98.1038  59.8965 0011077 233.3759 126.6436 14.85105420983129
HAIYANG-1B              
1 31113U 07010A   25074.58248780  .00000316  00000+0  13602-3 0  9991
2 31113  98.3116  70.4354 0014664 118.6075 241.6585 14.30844483935042
BEIDOU-2 M1             
1 31115U 07011A   25073.29007803 -.00000003  00000+0  00000+0 0  9998
2 31115  51.1139 234.5609 0002226  34.4686 325.4863  1.77349302 67993
CAPE-1                  
1 31130U 07012P   25074.42092614  .00005412  00000+0  10122-2 0  9993
2 31130  98.3889  33.9580 0087996  62.8424 298.1715 14.62802920951224
CBERS 2B                
1 32062U 07042A   25074.84618045  .00000820  00000+0  26653-3 0  9994
2 32062  98.3393  24.1072 0029910 275.8128 138.0590 14.41087752918722
COSMO-SKYMED 2          
1 32376U 07059A   25074.83206832  .00001485  00000+0  19295-3 0  9998
2 32376  97.8917 260.0778 0001342  84.4597 275.6770 14.82175579934189
CARTOSAT-2A             
1 32783U 08021A   25074.85906502  .00002135  00000+0  29770-3 0  9995
2 32783  97.8263 132.6330 0011949 156.2133 203.9633 14.78695192911158
CUTE-1.7+APD II (CO-65) 
1 32785U 08021C   25074.43725450  .00012886  00000+0  96328-3 0  9999
2 32785  97.7786  45.0912 0012320 131.7214 228.5067 15.02855934916131
COMPASS-1               
1 32787U 08021E   25074.40224694  .00070499  00000+0  20909-2 0  9997
2 32787  97.6438  60.7441 0005183  18.5686 341.5744 15.34550348918980
AAUSAT-II               
1 32788U 08021F   25074.43554839  .00189353  00000+0  27034-2 0  9994
2 32788  97.6060  67.7811 0003893 104.8002 255.3683 15.55600206919850
SEEDS II (CO-66)        
1 32791U 08021J   25074.44478034  .00026385  00000+0  14019-2 0  9995
2 32791  97.7224  52.7851 0007183  99.2307 260.9737 15.15253125917430
YUBILEINY (RS-30)       
1 32953U 08025A   25074.85252710  .00000030  00000+0  14293-3 0  9999
2 32953  82.4981 280.5094 0018783 231.4866 128.4530 12.43160111762885
FENGYUN 3A              
1 32958U 08026A   25074.80891750  .00000408  00000+0  21452-3 0  9997
2 32958  98.6396  20.5944 0009084  16.5058 343.6412 14.19389819870483
HUANJING 1A (HJ-1A)     
1 33320U 08041A   25074.88893090  .00004003  00000+0  50675-3 0  9999
2 33320  97.6396  75.0002 0019035 197.6631 162.3923 14.82209390890571
HUANJING 1B (HJ-1B)     
1 33321U 08041B   25074.89549743  .00003090  00000+0  39264-3 0  9990
2 33321  97.6297  79.2982 0035798 245.8101 113.9369 14.81892143890598
SHIJIAN-6 03A (SJ-6 03A)
1 33408U 08053A   25074.56934617  .00013571  00000+0  83058-3 0  9996
2 33408  97.8788  87.9878 0014586 137.2744 222.9621 15.10254429893575
SHIJIAN-6 03B (SJ-6 03B)
1 33409U 08053B   25074.85405443  .00007015  00000+0  54101-3 0  9992
2 33409  97.8723  82.3736 0021743 137.9042 222.3857 15.01735663893892
CHUANGXIN 1-02 (CX-1-02)
1 33434U 08056B   25072.85314709  .00000239  00000+0  10973-3 0  9995
2 33434  98.6558  97.6730 0015201  54.8449 305.4155 14.30002894852824
PRISM (HITOMI)          
1 33493U 09002B   25074.47665210  .00308311  00000+0  29145-2 0  9990
2 33493  98.1530 157.9846 0003866 310.8146  49.2776 15.66015134880672
STARS (KUKAI)           
1 33498U 09002G   25074.77448991  .00009718  00000+0  99678-3 0  9991
2 33498  98.1225   1.3927 0007525 235.5210 124.5296 14.90626852870484
KKS-1 (KISEKI)          
1 33499U 09002H   25074.54096129  .00004269  00000+0  55626-3 0  9990
2 33499  98.1247 345.4500 0007852 346.7647  13.3358 14.81114064868253
NOAA 19                 
1 33591U 09005A   25074.82704688  .00000422  00000+0  24906-3 0  9997
2 33591  99.0071 139.0195 0012946 243.5600 116.4244 14.13309524829990
YAOGAN-6                
1 34839U 09021A   25074.86885803  .00118304  00000+0  70515-3 0  9990
2 34839  97.1996  51.5280 0006049 217.4491 142.6355 15.77567323885809
UK-DMC 2                
1 35683U 09041C   25074.86119842  .00002743  00000+0  41671-3 0  9993
2 35683  97.8159 218.2461 0001075  88.5332 271.6000 14.74816568839031
METEOR-M 1              
1 35865U 09049A   25074.86469042  .00000358  00000+0  17842-3 0  9996
2 35865  98.6757  37.4152 0002144 166.0846 194.0392 14.22972383804208
OCEANSAT-2              
1 35931U 09051A   25074.88904423 -.00000120  00000+0 -56492-4 0  9996
2 35931  98.2336 102.9223 0016855  90.7004 269.6094 13.99572077815222
SWISSCUBE               
1 35932U 09051B   25074.69086734  .00003269  00000+0  67691-3 0  9999
2 35932  98.4403 329.2949 0006489 187.7625 172.3475 14.60947226822218
BEESAT-1                
1 35933U 09051C   25074.63210742  .00002789  00000+0  58582-3 0  9997
2 35933  98.4332 329.7392 0004668 199.0599 161.0427 14.60419118822227
ITUPSAT1                
1 35935U 09051E   25074.23597870  .00002639  00000+0  56927-3 0  9990
2 35935  98.4430 328.9462 0006702 213.6904 146.3869 14.59241585821775
DMSP 5D-3 F18 (USA 210) 
1 35951U 09057A   25074.91966645  .00000621  00000+0  34613-3 0  9996
2 35951  98.8522  53.1923 0012139 111.0708 249.1764 14.14540575794779
PROBA-2                 
1 36037U 09059B   25074.51616875  .00000786  00000+0  19501-3 0  9998
2 36037  98.2361 259.5593 0012068 255.6876 104.2981 14.54460279814936
YAOGAN-7                
1 36110U 09069A   25074.92189422  .00001612  00000+0  23371-3 0  9998
2 36110  98.0689 317.1924 0026338  76.0618 284.3519 14.77217173821991
XIWANG-1 (HOPE-1)       
1 36122U 09072B   25074.89009804 -.00000014  00000+0  79190-4 0  9993
2 36122 100.3389  32.5143 0007219 196.8857 163.2017 13.16420717732803
RADUGA-1M 2             
1 36358U 10002A   25074.54632769 -.00000172  00000+0  00000+0 0  9997
2 36358   2.4208  84.6612 0007693 247.2394 341.2125  0.98967609 45489
COSMOS 2463             
1 36519U 10017A   25074.50608095  .00000088  00000+0  81173-4 0  9993
2 36519  82.9594 226.7028 0035296 324.4900 105.6350 13.71616532745053
CARTOSAT-2B             
1 36795U 10035A   25074.82734296  .00002065  00000+0  28798-3 0  9997
2 36795  97.8201 132.0384 0011010 234.2745 125.7443 14.78715544792190
AISSAT 1                
1 36797U 10035C   25074.62626445  .00005251  00000+0  49343-3 0  9992
2 36797  98.1488 312.2841 0010512 128.0304 232.1865 14.94345341795668
TISAT 1                 
1 36799U 10035E   25074.68116250  .00025688  00000+0  14408-2 0  9997
2 36799  98.0647 343.5579 0005233  53.2782 306.8927 15.13343241798169
YAOGAN-10               
1 36834U 10038A   25074.90600875  .00002027  00000+0  25015-3 0  9995
2 36834  97.9335  96.4957 0001566  98.2313  21.6273 14.83966888789282
SHIJIAN-6 04B (SJ-6 04B)
1 37180U 10051B   25074.86583724  .00003822  00000+0  32947-3 0  9999
2 37180  97.8587  71.2876 0012206  51.9067 308.3253 14.97865476787053
FENGYUN 3B              
1 37214U 10059A   25074.88046576  .00000242  00000+0  14901-3 0  9999
2 37214  99.0250 112.3921 0022815  46.7702 357.4121 14.14693670742666
COSMO-SKYMED 4          
1 37216U 10060A   25074.84477189  .00001452  00000+0  18893-3 0  9995
2 37216  97.8918 260.1002 0001326  85.0861 275.0503 14.82142096776733
O/OREOS (USA 219)       
1 37224U 10062C   25074.56128092  .00007288  00000+0  74613-3 0  9996
2 37224  71.9731  36.9220 0016736 226.3274 133.6509 14.90676121 48229
